Snowball Map,Dupe (Y/N),Match Address,Match Phone,Restaurant Name,Address,City,Zipcode,State,Country,Phone Number(s),,,,,,,,
,TRUE,2135 Albert St,-,Hachi Sushi,2135 Albert St,Regina,S4P 2V1,SK,CAN,3065251768,3067376557,,,,,,,
80087,FALSE,-,-,New Dragon Boat,1775 Ernest Ave,London,N6E 2V5,ON,CAN,5196818808,2267005188,4168013188,6476743393,5196363693,,,,
80088,FALSE,-,-,Great Moon Buffet,1801 Dundas E,Whitby,L1N 7C5,ON,CAN,9054338828,9059256151,,,,,,,
,TRUE,662 Somerset St W,-,Yang Sheng Restaurant,662 Somerset St W,Ottawa,K1R 5K4,ON,CAN,6132355794,3437773144,6134211263,6137628600,6134214120,6138166368,,,
,TRUE,2901 Bayview Ave,-,Pearl,2901 Bayview Ave,North York,M2K 1000000,ON,CAN,4162261233,6472985780,4165068886,,,,,,
80089,FALSE,-,-,Beijing House,1850 Island Hwy N,Campbell River,V9W 2G1,BC,CAN,2508303268,2508307388,,,,,,,
80090,FALSE,-,-,Aki Da Japanese Seafood House,1911 Queen St E,Toronto,M4L 1H3,ON,CAN,4166912788,6472418744,4166922788,4169189936,,,,,
80091,FALSE,-,-,Angel's Diner,100 Belmont Dr,London,N6J 4J7,ON,CAN,5196902900,,,,,,,,
80092,FALSE,-,-,Tandoori Flare,1357 Johnston Rd,White Rock,V4B 3Z2,BC,CAN,6043852012,6467041988,4142359220,6045432100,6047605437,6048490119,,,
80093,FALSE,-,-,Lorenzo's Restaurant,3007 Carling Avenue,Ottawa,K2B 7Y6,ON,CAN,6135962222,,,,,,,,
,TRUE,50 Market St S,-,BarBurrito,50 Market St S,Brantford,N3S 2000,ON,CAN,5197544985,5195120182,5197611703,,,,,,
80094,FALSE,-,-,Vietnamese Noodle House,121 Preston Street,Ottawa,K1R 7P3,ON,CAN,6132332201,6134471230,,,,,,,
80095,FALSE,-,-,Golden China Cuisine,4555 Hwy 7 W,Woodbridge,L4L 1S6,ON,CAN,9058563888,,,,,,,,
80096,FALSE,-,-,Gusto Di Quattro,1 Lonsdale Ave,North Vancouver,V7M 20000,BC,CAN,6049244444,,,,,,,,
80097,FALSE,-,-,Rajdoot Restaurant,2424 4 St SW,Calgary,T2S 2T4,AB,CAN,4032450181,,,,,,,,
80098,FALSE,-,-,El Matador,131 W Esplanade,North Vancouver,V7M 1A1,BC,CAN,6047701717,,,,,,,,
80099,FALSE,-,-,La Tortilla Mexicana,910 Esquimalt Rd,Victoria,V9A 3M7,BC,CAN,7784331331,,,,,,,,
80100,FALSE,-,-,Mexican Family Steakhouse,5217 48 Ave,Taber,T1G 1S8,AB,CAN,4032239464,,,,,,,,
80101,FALSE,-,-,Canra Srilankan Plus,88 West Pender,Vancouver,V6B 6N9,BC,CAN,6045683545,7788233545,,,,,,,
80102,FALSE,-,-,Al Salam Bakery & Restaurant,10141 34 Ave NW,Edmonton,T6E 6J8,AB,CAN,7809440000,5879263351,,,,,,,
80103,FALSE,-,-,White Lotus,15 Worobetz Pl,Saskatoon,S7L 6R4,SK,CAN,3069741060,3063411387,6399161868,,,,,,
80104,FALSE,-,-,Happy Sushi,5632 Victoria Dr.,Vancouver,V5P 3W4,BC,CAN,6045683727,7788555108,6047732168,,,,,,
80105,FALSE,-,-,Luna Crepes & Cafe,329 March Rd,Ottawa,K2K 20,ON,CAN,6132545551,,,,,,,,
80106,FALSE,-,-,Daves Chicken & Seafood,2603 Eglinton Ave W,Toronto,M6M 1T3,ON,CAN,6473521125,,,,,,,,
80107,FALSE,-,-,Beijing Dumplings,66 Edward Street,Toronto,M5G 1C9,ON,CAN,6477487711,,,,,,,,
80108,FALSE,-,-,The Three Amigos,4035 106th St NW,Edmonton,T6J 2S3,AB,CAN,7804906394,7029327626,,,,,,,
80109,FALSE,-,-,Kim Kim Restaurant,1188 Kennedy Rd,Toronto,M1P 2L1,ON,CAN,4167578300,4167288632,,,,,,,
80110,FALSE,-,-,Madinah Grill,2680 Lawrence Ave E,Toronto,M1P 4Y4,ON,CAN,6473438598,6472986128,,,,,,,
80111,FALSE,-,-,Smilie’s Village Restaurant,981 Fir Street,Sherwood Park,T8A 4N5,AB,CAN,7804641200,7809208586,,,,,,,
80112,FALSE,-,-,Wok House,388 Saint Albert Trail,Saint Albert,T8N 5S8,AB,CAN,7804587755,7808607566,7808607569,7808637569,7807297566,6472429283,7808858098,7809375115,
,TRUE,10586 100 St NW,-,Asian Express Hotpot,10586 100 St NW,Edmonton,T5H 2R6,AB,CAN,7804218300,,,,,,,,
80113,FALSE,-,-,Spicy 6,1116 Robson St,Vancouver,V6E 1B2,BC,CAN,6043367999,7788552254,6479867273,,,,,,
80114,FALSE,-,-,Aji Sai Japanese Restaurant,32 Dundas St West,Belleville,K8P 1A3,ON,CAN,6139663939,,,,,,,,
80115,FALSE,-,-,Kabab & Tikah House,178 Carlton Street,Toronto,M5A 2K6,ON,CAN,4169648414,6477850666,,,,,,,
80116,FALSE,-,-,Ma La Chi Huo Chinese Cuisine,346 Spadina Ave,Toronto,M5T 2G2,ON,CAN,6479398388,6475002188,4169536708,,,,,,
80117,FALSE,-,-,Gateway Asian Grill,106 Main St,Blaine Lake,S0J 0J0,SK,CAN,3064972555,,,,,,,,
80118,FALSE,-,-,Hareg Cafe & Variety,587 Bank St,Ottawa,K1S 3T4,ON,CAN,6136952488,,,,,,,,
80119,FALSE,-,-,Let's Grill Sushi & Izakaya,10709 Jasper Avenue,Edmonton,T5J3N3 ,AB,CAN,7802642708,,,,,,,,
80120,FALSE,-,-,Ancom Chinese Restaurant,834 The Queensway,Etobicoke,M8Z 1N5,ON,CAN,4162512227,4162512228,6479643885,,,,,,
80121,FALSE,-,-,County General,936 Queen St W,Toronto,M6J 1G9,ON,CAN,4165314447,,,,,,,,
,TRUE,14 Nipigon Ave,-,Tanoshii Sushi,14 Nipigon Ave,Markham,L6C 0X7,ON,CAN,3213213213,3213213213,,,,,,,
80122,FALSE,-,-,Viva Mexico Restaurant Grill,20505 Fraser Hwy,Langley,V3A 4G3,BC,CAN,6045327708,,,,,,,,
80123,FALSE,-,-,Mr. Rice,630 St Clair Ave W,Toronto,M6C 1A9,ON,CAN,2152216490,9179126622,,,,,,,
80124,FALSE,-,-,Shawarma Station,129-2446 Bank Street,Ottawa,K1V 1A4,ON,CAN,6137372121,,,,,,,,
80125,FALSE,-,-,TJ's Cafe,180 King St S,Waterloo,N2J 1P8,ON,CAN,5197453960,,,,,,,,
,TRUE,13071 Yonge St,-,Georgy Porgy's,13071 Yonge St,Richmond Hill,L4E 1A5,ON,CAN,2892344477,,,,,,,,
80126,FALSE,-,-,Wing Machine,1158 Bloor Street W,Toronto,M6H 1N1,ON,CAN,4165361880,6478845224,,,,,,,
,TRUE,1285 Elgin Mills Rd E,-,Akimi Japanese Cuisine,1285 Elgin Mills Rd E,Richmond Hill,L4S 0B5,ON,CAN,9058830188,6479905026,,,,,,,
80127,FALSE,-,-,Kung Fu Chop Chop,16 Vogell Road,Richmond Hill,L4B 3K4,ON,CAN,6478001111,,,,,,,,
80128,FALSE,-,-,Le Casablanca,55 Byward Market Square,Ottawa,K1N 1K1,ON,CAN,6132442519,6138182718,8193282235,,,,,,
80129,FALSE,-,-,Babaz Shawarma,243 Wharncliffe Road North,London,N6H 2B9,ON,CAN,5192046703,,,,,,,,
80130,FALSE,-,-,Irie Bites Cafe,210 Dundas St,London,N6A 5J3,ON,CAN,5198584743,5198529332,,,,,,,
80131,FALSE,-,-,Bunty's Chester Fried Chicken,820 Ellice Ave,Winnipeg,R3G 0B9,MB,CAN,2044211113,2047776666,,,,,,,
80132,FALSE,-,-,Paramount Fine Foods,769 Southdale Rd E,London,N6E 3B9,ON,CAN,5196681800,9059213010,,,,,,,
80133,FALSE,-,-,Pho Xyclo Vietnamese Restaurant,6175 Dunn Street,Niagara Falls,L2G 2B4,ON,CAN,9053538472,2899693300,9053214238,,,,,,
80134,FALSE,-,-,Miki Sushi Express,222 Baseline Road,Sherwood Park,T8H 1S8,AB,CAN,7804676752,7807092031,,,,,,,
80135,FALSE,-,-,Gyutaro,521 Bloor Street W,Toronto,M5S 1Y4,ON,CAN,6473527200,6478864078,,,,,,,
,TRUE,456 Norfolk St S,-,J. C Sushi,456 Norfolk St S,Simcoe,N3Y 2X3,ON,CAN,5194266888,6475058372,6479886968,,,,,,
,TRUE,1991 E Hastings St,-,Volcano Sushi,1991 E Hastings St,Vancouver,V5L 1T2,BC,CAN,5865666666,,,,,,,,
80136,FALSE,-,-,Shanghai Restaurant,106 Humber College Blvd,Etobicoke,M9V4E4 ,ON,CAN,4082451342,,,,,,,,
,TRUE,217 Parliament St,-,Westown Chinese,217 Parliament St,Toronto,M5A 2Z4,ON,CAN,6473452225,4166171919,6475429956,4166174949,,,,,
80137,FALSE,-,-,Lucky Star,5527 Hastings St,Burnaby,V5B 1R2,BC,CAN,6042942773,5877070488,6042948498,,,,,,
80138,FALSE,-,-,Bubble Sushi,783 Northmount Dr NW,Calgary,T2L 0A1,AB,CAN,4032823613,4036061398,4039097288,,,,,,
80139,FALSE,-,-,Chang's Restaurant,383 Elgin St N,Cambridge,N1R 8C1,ON,CAN,5197401181,5197400047,5197213370,6478338000,,,,,
80140,FALSE,-,-,Sun Sun Restaurant,44 Macdonell St,Guelph,N1H 2Z3,ON,CAN,2075828888,2075826688,,,,,,,
80141,FALSE,-,-,Red Star Chinese Restaurant,3301 Gaetz Ave (50 Av),Red Deer,T4N 3Y2,AB,CAN,4033095566,4033188881,,,,,,,
,TRUE,35 Harvard Rd,-,Ray's Chinese,35 Harvard Rd,Guelph,N1G 3A2,ON,CAN,5198235197,6472338878,5195150109,4166698872,4043156887,6478900133,,,
,TRUE,1668 W Broadway,-,Bashu Sichuan,1668 W Broadway,Vancouver,V6J 1X6,BC,CAN,6047395888,7788583298,,,,,,,
80142,FALSE,-,-,Vietnamese Garden Restaurant,9-88 Howarth St,Red Deer,T4N 6V9,AB,CAN,5872731388,4035985898,,,,,,,
80143,FALSE,-,-,128 Asian Cuisine,115 Talbot St W,Aylmer,N5H 1J6,ON,CAN,5192666813,2267005188,,,,,,,
80144,FALSE,-,-,Musou Sushi,110 22470 Dewdney Trunk Road,Maple Ridge,V2X 5Z6,BC,CAN,6044774447,7788899113,7783788998,,,,,,
80145,FALSE,-,-,Don’s Restaurant,4809 Centre St NW,Calgary,T2E 2Z6,AB,CAN,4032772817,4038091966,,,,,,,
80146,FALSE,-,-,Ming Kitchen,1015 University Avenue W,Windsor,N9A 5S6,ON,CAN,5192540828,2263475848,5195677839,5199035581,5192540389,,,,
80147,FALSE,-,-,Family Garden,7 Assiniboine Drive,Saskatoon,S7K 1H1,SK,CAN,3069547788,3062419239,,,,,,,
80148,FALSE,-,-,Pacha,2095 Prince of Wales Drive,Richardson,S0G 4G0,SK,CAN,3065592838,,,,,,,,
80149,FALSE,-,-,Mongolian Indulgence,270 Baseline Road,Sherwood Park,T8H 1R4,AB,CAN,7804173638,7807099098,,,,,,,
80150,FALSE,-,-,Sushi Jade,992 University Ave West,Windsor,N9A 5S2,ON,CAN,5199920216,6473895588,6473889928,,,,,,
80151,FALSE,-,-,Maple Sushi,30 Disera Drive,Thornhill,L4J 0A7,ON,CAN,9057092238,6472948850,6479936966,6479927779,6478688299,,,,
80152,FALSE,-,-,Afghan Turkish Cuisine,422 Willingdon Ave,Burnaby,V5C 5G4,BC,CAN,6045634131,7788929451,,,,,,,
,TRUE,156 The Queensway,-,Wok Terminal,156 The Queensway,Etobicoke,M8Y 1J2,ON,CAN,4162550505,4165080989,,,,,,,
,TRUE,350 Ontario St,-,Big Tuna Asian Cuisine,350 Ontario St,St Catharines,L2R 5L8,ON,CAN,9056879888,6472919992,6477722726,,,,,,
80153,FALSE,-,-,Hot Wok,461 Guelph Line,Burlington,L7R 3L8,ON,CAN,2256878889,2256878288,,,,,,,
80154,FALSE,-,-,Sunrise Restaurant,125 Idylwyld Dr. N,Saskatoon,S7L 0Y6,SK,CAN,3069742064,,,,,,,,
,TRUE,5003 52 Ave,-,Twin Dragon Restaurant,5003 52 Ave,Beaumont,T4X 100000,AB,CAN,8162339116,,,,,,,,
80155,FALSE,-,-,Hirado Sushi Restaurant,1431 Commerical Dr,Vancouver,V5L 3X8,BC,CAN,6042559050,7787730911,,,,,,,
80156,FALSE,-,-,Hiro Japanese Restaurant,19537 Fraser Highway,Surrey,V3S 6K7,BC,CAN,9043638888,9047086623,9045148613,9045994656,9048818680,4088006662,9046875378,,
80157,FALSE,-,-,Phat Albert's Wok and Grill,911 Commissioners Road East,London,N5Z 3H9,ON,CAN,5196422262,,,,,,,,
80158,FALSE,-,-,Vietnam House Restaurant,2122 E Hastings St,Vancouver,V5L 1V2,BC,CAN,6042511268,6043021615,7789176594,7783028573,,,,,
80159,FALSE,-,-,Maple Sushi,2563 Major Mackenzie Drive W,Vaughan,L6A 1G5,ON,CAN,9057092238,6472948850,6479936966,6479927779,6478688299,,,,
80160,FALSE,-,-,Le Kim Chi Restaurant,420 Preston Street,Ottawa,K1S 4N2,ON,CAN,6132332433,,,,,,,,
,TRUE,3650 Dundas St,-,China Taste,3650 Dundas St,Burlington,L7M 4B8,ON,CAN,6302629580,6302629581,6309239585,,,,,,
80161,FALSE,-,-,Pan Flame,6510 48 Avenue,Camrose,T4V 3A3,AB,CAN,5873860055,4038721397,7789630778,2506824211,2508994326,7807818850,,,
80162,FALSE,-,-,Wings Up!,65 University Ave E,Waterloo,N2J 2V9,ON,CAN,5197255252,,,,,,,,
80163,FALSE,-,-,Saboroso Brazilian Steakhouse,2600 8th St E,Saskatoon,S7H 0V7,SK,CAN,3062494454,3062494450,,,,,,,
80164,FALSE,-,-,Caribbean Sizzler,133 Bank St,Ottawa,K1P 5N7,ON,CAN,6135697000,,,,,,,,
80165,FALSE,-,-,Slice and Co.,399 Elgin Street,Ottawa,K2P 1M9,ON,CAN,6136272345,,,,,,,,
,TRUE,3010 Arlington Ave,-,Izumi Restaurant,3010 Arlington Ave,Saskatoon,S7J 2J9,SK,CAN,3066529911,3062911002,,,,,,,
80166,FALSE,-,-,Mama's Hot Italian Sandwiches,797 York Street,London,N5W 6A8,ON,CAN,5196456262,,,,,,,,
80167,FALSE,-,-,Sunny & Rose‘s Bar and Grill,5114 Roblin Blvd,Winnipeg,R3R 0G9,MB,CAN,2044144055,,,,,,,,
,TRUE,462 Birchmount Rd,-,Panda Wok,462 Birchmount Rd,Scarborough,M1K 1N8,ON,CAN,4253742185,4252489786,,,,,,,
80168,FALSE,-,-,Original Barrio Fiesta,45 Overlea Blvd,Toronto,M4H 1C3,ON,CAN,6473465706,6475257908,6476075058,,,,,,
,TRUE,1765 Kenaston Blvd,-,Phoenix Square,1765 Kenaston Blvd,Winnipeg,R3Y 1V8,MB,CAN,2046153338,,,,,,,,
80169,FALSE,-,-,D & P Vietnamese Restaurant,860 Victoria Ave E,Regina,S4N 7A9,SK,CAN,3065223777,3062160675,,,,,,,
,TRUE,374 Richmond St,-,A-One Asian Buffet,374 Richmond St,London,N6A 3C7,ON,CAN,5194397888,,,,,,,,
80170,FALSE,-,-,Pita Lite,2325 Matheson Blvd E,Mississauga,L4W 5B6,ON,CAN,9052829500,6474281236,,,,,,,
80171,FALSE,-,-,Saltwater Restaurant & Bar,284 Duckworth St,St John s,A1C 1H3,NL,CAN,7097545670,,,,,,,,
80172,FALSE,-,-,Shawliz Restaurant,3180 St Johns St,Port Moody,V3H 2C7,BC,CAN,6045664222,,,,,,,,
80173,FALSE,-,-,Wimpy's Diner,586 Kerr Street,Oakville,L6K 30000,ON,CAN,9058426417,4164196198,,,,,,,
80174,FALSE,-,-,Ginza Ramen Sushi and Sake Bar Restaurant,280 Elgin Street,Ottawa,K2P 1M2,ON,CAN,6132332888,,,,,,,,
,TRUE,10412 63 Ave NW,-,Asian Express Hot Pot,10412 63 Ave NW,Edmonton,T6H 4J5,AB,CAN,7809883318,7807087160,7804218300,7807092742,,,,,
,TRUE,144 Thames St S,-,Sushi Eleven,144 Thames St S,Ingersoll,N5C 2T4,ON,CAN,5194850111,4167216788,6474620888,6479836933,,,,,
80175,FALSE,-,-,Asian Garden,2002 8 St E,Saskatoon,S7H 0T9,SK,CAN,6088509818,6082395699,,,,,,,
80176,FALSE,-,-,Burnaby Palace,3110 Boundary Rd,Burnaby,V5M 4A2,BC,CAN,6044371818,7785220021,,,,,,,
,TRUE,1564 George St,-,Silver Dragon,1564 George St,White Rock,V4B 4A3,BC,CAN,6045364848,7788993387,7789973387,6045363838,,,,,
,TRUE,2757 Spruce St,-,Great Wall,2757 Spruce St,Prince George,V2L 2S2,BC,CAN,3156997078,3156997215,6463315572,,,,,,
,TRUE,30 Farnham Gate Rd,-,Canton Garden,30 Farnham Gate Rd,Halifax,B3M 0H8,NS,CAN,9024067788,9024488528,9024231186,9024898388,9024888528,6478966773,9024438528,,
80177,FALSE,-,-,Jane Bond BBQ,4024 26 St SE,Calgary,T2B 2Y4,AB,CAN,4032777064,4034783365,,,,,,,
80178,FALSE,-,-,Wok N Roll,12730 82 St. NW,Edmonton,T5E 2T1,AB,CAN,6095673515,6095673466,6465771169,,,,,,
80179,FALSE,-,-,North Garden,552 Clarke Road,Coquitlam,V3J 3X5,BC,CAN,6044218863,,,,,,,,
80180,FALSE,-,-,Dragon Court,931 Oxford St East,London,N5Y 3K1,ON,CAN,7045960228,,,,,,,,
80181,FALSE,-,-,A1 Chinese,6188 Malden Rd,Windsor,N9H 1T1,ON,CAN,5197341388,2262468192,5199992022,,,,,,
80182,FALSE,-,-,Chinese Village,512 6 St SW,Calgary,T2P 1X3,AB,CAN,4032698880,,,,,,,,
80183,FALSE,-,-,Wok Stop,271A Morningside Ave,Scarborough,M1E 3G1,ON,CAN,4167921175,6479905788,,,,,,,
,TRUE,1702 Alexandra Ave,-,New Red Lantern Inn Chinese Restaurant,1702 Alexandra Ave,Saskatoon,S7K 3C5,SK,CAN,3066657335,3065805656,3063609994,,,,,,
,TRUE,24 Coburg St,-,Asia's Best Cuisine,24 Coburg St,Saint John,E2L 3J5,NB,CAN,5066931497,5067216188,5066529057,2368864816,,,,,
80184,FALSE,-,-,Zen 8 Grill,421 12 Ave SE,Calgary,T2G 1A5,AB,CAN,4032611888,4033831435,,,,,,,
80185,FALSE,-,-,Seoul Restaurant,5170 Duke Street,Halifax,B3J 1N7,NS,CAN,9024043414,,,,,,,,
80186,FALSE,-,-,Bombay Chaat and Dosa,2580 Shepard Ave,Mississauga,L5A 4K3,ON,CAN,9059496600,6478081837,,,,,,,
80187,FALSE,-,-,Salt & Pepper,13767 72 Avenue,Surrey,V3W 9Z1,BC,CAN,7785647705,7788836562,,,,,,,
80188,FALSE,-,-,Basa's Hot Dog World,1175A St Clair Ave W,Toronto,M6E 1B5,ON,CAN,6474990132,,,,,,,,
,TRUE,1717 Kenaston Blvd,-,Asoyama Sushi,1717 Kenaston Blvd,Winnipeg,R3Y 1V5,MB,CAN,2044874222,,,,,,,,
80189,FALSE,-,-,A+ Sushi,202 Bank St,Ottawa,K2P 2H6,ON,CAN,6132340888,6134046258,,,,,,,
80190,FALSE,-,-,Sushi KOKO,800 Dundas Street E,Mississauga,L4Y 2B6,ON,CAN,9056151115,,,,,,,,
,TRUE,755 Dundas St W,-,Bombay To Go,755 Dundas St W,Mississauga,L5C 3B6,ON,CAN,9052767787,,,,,,,,
80191,FALSE,-,-,Badass Jacks,9-527 Nelson Rd.,Saskatoon,S7S 1P4,SK,CAN,3069792525,,,,,,,,
80192,FALSE,-,-,Crazy Piano Persian Grill,320 Water St,Peterborough,K9H 7N9,ON,CAN,7059911625,7057610600,,,,,,,
80193,FALSE,-,-,Khana Khazana Restaurant,14343 Macleod Trail,Calgary,T2Y 1M7,AB,CAN,4032551666,4033996494,,,,,,,
80194,FALSE,-,-,Georgy Porgy‘s,1448 Lawrence Ave E,Toronto,M4A 2V6,ON,CAN,4162858980,4164508593,6473321784,,,,,,
80195,FALSE,-,-,Extreme Pita Catering,201 1 Ave S,Saskatoon,S7K 1J5,SK,CAN,3069544600,3068811021,,,,,,,
80196,FALSE,-,-,Aji Sai Japanese Restaurant,178 Ontario Street,Kingston,K7L 2Y7,ON,CAN,6139663939,,,,,,,,
80197,FALSE,-,-,I Like Sushi,5875 Rochdale Blvd,Regina,S4X 2P9,SK,CAN,3067898998,3065312328,6476066299,3065960520,3065800968,,,,
80198,FALSE,-,-,I Love Sushi,3622 Eastgate Dr.,Regina,S4Z 1A5,SK,CAN,3067898996,3065019708,3065526352,,,,,,
80199,FALSE,-,-,Spices of Punjab,320 Victoria Ave,Regina,S4N 0N7,SK,CAN,3065431000,,,,,,,,
80200,FALSE,-,-,Blue Orchid Chinese Resturant,11235 Jasper Ave,Edmonton,T5K 0L5,AB,CAN,7807611235,7807087160,7804218300,7806043863,,,,,
80201,FALSE,-,-,Kishu River Japanese Restaurant,3339 Kingsway St,Vancouver,V5R 2T3,BC,CAN,6044338857,,,,,,,,
80202,FALSE,-,-,Momo Sushi,375 Water Street,Vancouver,V6B 5C6,BC,CAN,6046837632,7788755224,6047262864,7786865760,7789800825,,,,
,TRUE,3978 Hastings St,-,Hastings Sushi,3978 Hastings St,Burnaby,V5C 2J1,BC,CAN,6044737900,,,,,,,,
80203,FALSE,-,-,Oak's Garden,128 Speers Rd.,Oakville,L6K 20000000,ON,CAN,9058456611,6478308822,,,,,,,
80204,FALSE,-,-,Dynasty Gourmet Asian Buffet,1700 Broad St,Regina,S4P 1Z4,SK,CAN,3065438866,,,,,,,,
80205,FALSE,-,-,Yen Fung Ding Dumpling Shoppe,628 Somerset St W,Ottawa,K1R 5K4,ON,CAN,6132330660,6138681298,,,,,,,
80206,FALSE,-,-,Miki Sushi Express,13508 Victoria Trail NW,Edmonton,T5A 5C9,AB,CAN,7804676752,7807092031,,,,,,,
80207,FALSE,-,-,Good Times Asian Bistro & Bar,122-270 Baseline Rd,Sherwood Park,T8H 1R4,AB,CAN,7804495462,,,,,,,,
80208,FALSE,-,-,Bangkok Fusion,1043 Devonshire Drive,Regina,S4X 4L2,SK,CAN,3065804544,,,,,,,,
,TRUE,81 Yorkville Ave,-,Koko Sharebar,81 Yorkville Ave,Toronto,M5R 1C1,ON,CAN,4168506135,,,,,,,,
,TRUE,60 Dundas St E,-,Pho Lam,60 Dundas St E,Mississauga,L5A 1W4,ON,CAN,9058968899,6474645710,9054573833,6475235710,,,,,
80209,FALSE,-,-,Mexico Lindo Express,2600 Birchmount Rd,Scarborough,M1T 2M5,ON,CAN,6477480679,,,,,,,,
80210,FALSE,-,-,Lily Gourmet Restaurant,1332 Huron St,London,N5V 200,ON,CAN,2266634775,6472484588,6479498087,6479288087,,,,,
,TRUE,11044 82 Ave NW,-,Mandarin Restaurant,11044 82 Ave NW,Edmonton,T6G 0T2,AB,CAN,7149625789,7149625789,9492323880,,,,,,
80211,FALSE,-,-,Tandoori Raj Restaurant,689 65 Ave E,Vancouver,V5X 2P7,BC,CAN,6043251301,6043273355,6043250040,,,,,,
80212,FALSE,-,-,Tandoor N Flame,4807 50 Ave,Red Deer,T4N 4A5,AB,CAN,4033477600,4033021033,4037552433,,,,,,
80213,FALSE,-,-,Kothu Rotti Restaurant,408 Dalhousie St,Ottawa,K1N 9J9,ON,CAN,6136807812,6478087193,6134001722,,,,,,
,TRUE,1298 Kingston Rd,-,1298 Sushi,1298 Kingston Rd,Pickering,L1V 1B7,ON,CAN,9058393988,6473399318,6478238488,,,,,,
80214,FALSE,-,-,Mojos Pizzeria & Donair,3011 26 Ave SW,Calgary,T3E 0M7,AB,CAN,4032495111,4036177816,,,,,,,
80215,FALSE,-,-,Taste of Yunnan,438 Dundas St W,Toronto,M5T 1G7,ON,CAN,6473500311,,,,,,,,
,TRUE,275 Bank St,-,Pho Bo Ba Truc,275 Bank St,Ottawa,K2P 2P1,ON,CAN,6132338717,,,,,,,,
80216,FALSE,-,-,First Choice Chinese,7080 Kingsway,Burnaby,V5E 100000,BC,CAN,6045210800,6048893365,6042157638,7789980203,6048891923,7789988796,6045001923,,
,TRUE,710 Watt St,-,Wing's Restaurant,710 Watt St,Winnipeg,R2K 2S7,MB,CAN,2046632633,,,,,,,,
80217,FALSE,-,-,Makisu Sushi,1517 Mayor Magrath Dr South,Lethbridge,T1K 2R4,AB,CAN,4033282525,5872202616,4033933313,6479808068,5672203136,,,,
80218,FALSE,-,-,Silver China,79 Elgin St N,Cambridge,N1R 5H4,ON,CAN,5196211311,9056175633,,,,,,,
80219,FALSE,-,-,TCJ Restaurant,64B Queen St E,Toronto,M5C 2T3,ON,CAN,4163689988,6473825888,6479280689,,,,,,
,TRUE,2365 Burrard St,-,TimKee Kitchen Cantoness Szechuan Cuisine,2365 Burrard St,Vancouver,V6J 3J2,BC,CAN,6047388628,6048173333,,,,,,,
80220,FALSE,-,-,Tianjin Chinese Restaurant,11-222 16 Ave NE,Calgary,T2E 1J8,AB,CAN,4032770908,5879686507,,,,,,,
,TRUE,1224 Davie St,-,Ho Ho Yummy Food,1224 Davie St,Vancouver,V6E 1N3,BC,CAN,6046889896,6047107289,6045663708,,,,,,
80221,FALSE,-,-,China Coast,9 Main Street West,Saint John,E2M 3M9,NB,CAN,5066351774,5066399368,,,,,,,
80222,FALSE,-,-,Sun Hong BBQ & Seafood,2037 Wyandotte St. W,Windsor,N9B 1J8,ON,CAN,5192557808,6475888725,5199921897,4167287669,,,,,
80223,FALSE,-,-,Bobby Chao's,34 Edgedale Dr. NW,Calgary,T3A 2R4,AB,CAN,4032077840,4036511188,4035474356,5873237880,4037502295,4038808939,,,
,TRUE,9120 82 Ave NW,-,Szechuan Mango (Chinese Szechuan Stir Fry),9120 82 Ave NW,Edmonton,T6C 0Z5,AB,CAN,7804337070,7809169818,7804331314,7807219898,7804737607,,,,
80224,FALSE,-,-,Thirsty Monk,21 Celina St,Oshawa,L1H 1A8,ON,CAN,9057283219,,,,,,,,
,TRUE,8 Washington St,-,Chef Lin,8 Washington St,Markham,L3P 2R2,ON,CAN,2895541128,6472424569,2895546868,,,,,,
80225,FALSE,-,-,WingsUp!,2399 Kingsway Drive,Kitchener,N2C 1A5,ON,CAN,5198930202,,,,,,,,
,TRUE,8380 Kennedy Rd,-,Spice House,8380 Kennedy Rd,Markham,L3R 0W4,ON,CAN,9053056661,6475456686,,,,,,,
80226,FALSE,-,-,"Fonkoosh Pita, Crepe & Grill",11 Pearl St,Mississauga,L5M 1X1,ON,CAN,9058129696,,,,,,,,
80227,FALSE,-,-,Neechie Pizzeria,3040 5th Ave,Regina,S4T 0L5,SK,CAN,3067750400,,,,,,,,
80228,FALSE,-,-,Bikaner Sweets and Bakery,121-7171 80 Ave NE,Calgary,T3J 0P6,AB,CAN,4035686666,4037025555,4037011645,5877036480,,,,,
,TRUE,7137 Argyll Rd NW,-,9 Grill Restaurant,7137 Argyll Rd NW,Edmonton,T6B 4A9,AB,CAN,7807053082,,,,,,,,
80229,FALSE,-,-,Green Tea Asian Cuisine,1009 Wonderland Rd S,London,N6K 3V1,ON,CAN,5196681617,,,,,,,,
80230,FALSE,-,-,Fat Tuna Japanese Bistro,11796 Fraser St,Maple Ridge,V2X 6C7,BC,CAN,6044791177,7789321070,6043536797,,,,,,
,TRUE,1801 Dundas St E,-,Food Village,1801 Dundas St E,Whitby,L1N 9G3,ON,CAN,9057431111,9057439237,6478584423,,,,,,
80231,FALSE,-,-,Caribbean Authentic Restaurant,6660 Kennedy Road,Mississauga,L5T 2M9,ON,CAN,9055650080,6472319314,,,,,,,
80232,FALSE,-,-,Big Daddy's,446 Davis Drive,Newmarket,L3Y 2P2,ON,CAN,9058980001,4164507101,6479172959,6472995442,,,,,
80233,FALSE,-,-,Everyday Sushi,4572 W 10th Ave,Vancouver,V6R 2J1,BC,CAN,6042289266,6047249088,,,,,,,
80234,FALSE,-,-,Les Grillades,85 Holland Ave,Ottawa,K1Y 0Y1,ON,CAN,6137923224,6138523912,,,,,,,
80235,FALSE,-,-,Miyakoi Sushi,130-132 Main St W,North Bay,P1B 2T5,ON,CAN,7054723528,6473026366,,,,,,,
80236,FALSE,-,-,Bai Du,138 Baseline Rd,Nepean,K2C 3G1,ON,CAN,6132258889,6138530880,,,,,,,
80237,FALSE,-,-,Masa Sushi,9200 Weston Rd,Vaughan,L4H 3J3,ON,CAN,9055538886,4162199018,9055536663,,,,,,
80238,FALSE,-,-,Original Barrio Fiesta,2215 Steeles Avenue,North York,M3J 3N2,ON,CAN,6473465706,6475257908,6476075058,,,,,,
,TRUE,1881 Steeles Ave W,-,Pho Plus,1881 Steeles Ave W,Toronto,M3H 0A1,ON,CAN,4166618882,6479498105,6479207525,,,,,,
80239,FALSE,-,-,Pete's Open Kitchen Restaurant,508 Queen St E,Toronto,M5A 1V2,ON,CAN,4163630948,,,,,,,,
,TRUE,1266 Bloor St W,-,Westown Chinese,1266 Bloor St W,Toronto,M6H 1N8,ON,CAN,6473452225,4166171919,6475429956,4166174949,,,,,
80240,FALSE,-,-,Sing Lee,105 Victoria St S,Kitchener,N2G 2B4,ON,CAN,5197420798,6479212282,5197315415,2263393962,5196948086,6472042988,,,
,TRUE,734 Adelaide St N,-,Chopstick House,734 Adelaide St N,London,N5Y 2L5,ON,CAN,5135743999,9172878272,,,,,,,
80241,FALSE,-,-,Juliets Castle Sports Bar and Lounge,440 16 ave NE,Calgary,T2E 8K9,AB,CAN,4032762844,4039989454,4036052192,,,,,,
80242,FALSE,-,-,Roma 1090 Restaurant,1090 Bloor St W,Toronto,M6H 1M6,ON,CAN,4165310000,4165801902,6478899085,4165351090,,,,,
,TRUE,229 Victoria Ave E,-,Miso Ya Japanese Cuisine,229 Victoria Ave E,Regina,S4N 0P4,SK,CAN,3067571512,,,,,,,,
80243,FALSE,-,-,Bikaner Sweets and Restaurant,4851 Westwinds Dr NE,Calgary,T3J 4L4,AB,CAN,4035685555,4037025555,4037011645,,,,,,
80244,FALSE,-,-,The Afghan Lounge,1475 Danforth Ave,Toronto,M4J 1N1,ON,CAN,6473500208,,,,,,,,
80245,FALSE,-,-,Kadoya Japanese Restaurant,1063 Davie Street,Vancouver,V6E 1M5,BC,CAN,6046081115,7788755224,7789800825,6048368413,6048090312,,,,
80246,FALSE,-,-,Afghan Cuisine,832 Albert St,Regina,S4R 2P5,SK,CAN,3069490800,3065011555,,,,,,,
80247,FALSE,-,-,Lucky Lotto Chester Fried Chicken,1094 Notre Dame Ave,Winnipeg,R3E 0N7,MB,CAN,2047743399,,,,,,,,
,TRUE,2 Bartley Bull Pkwy,-,Tokyo Maki Sushi,2 Bartley Bull Pkwy,Brampton,L6W 3P9,ON,CAN,9054563988,6472059282,4169533816,,,,,,
80248,FALSE,-,-,Lucky Dragon Dufferin,3203 S. Dufferin Street,North York,M6A 2T2,ON,CAN,6479260630,6478641123,6472829995,,,,,,
80249,FALSE,-,-,Truly Good Chinese Food,2640 52 Street NE,Calgary,T1Y 3R6,AB,CAN,4032938351,4032938331,4036670168,4034564680,,,,,
80250,FALSE,-,-,Pho Ngon,1801 Renfrew St,Vancouver,V5M 3H9,BC,CAN,6043365190,,,,,,,,
80251,FALSE,-,-,Umi Japanese,250 Bayly Street West,Ajax,L1S 3V4,ON,CAN,9052396896,6479630316,,,,,,,
,TRUE,1097 Kingsway,-,Ken's Chinese Restaurant,1097 Kingsway,Vancouver,V5V 3C7,BC,CAN,6048736338,7787139807,,,,,,,
80252,FALSE,-,-,Yoshiko Sushi,7117 Bathurst St,Vaughan,L4J 2J6,ON,CAN,9057718887,6476860801,,,,,,,
80253,FALSE,-,-,King Tin Restaurant,318 Spruce Street Unit 101,Waterloo,N2L 3M7,ON,CAN,5198854716,5194978322,,,,,,,
,TRUE,2325 50 Ave,-,Dragon City Cafe,2325 50 Ave,Red Deer,T4R 1M7,AB,CAN,4033403388,4033022134,4033403332,5873770874,4038727667,4038295148,4033410572,,
,TRUE,1193 Granville St,-,Tsui Hang Village Restaurant,1193 Granville St,Vancouver,V6Z 1M1,BC,CAN,6046836868,7789917687,,,,,,,
80254,FALSE,-,-,Adelitas Restaurant,5178 Victoria Drive,Vancouver,V5P 3T8,BC,CAN,6046771580,,,,,,,,
80255,FALSE,-,-,CT Taste Restaurant,14810 Yonge St,Aurora,L4G 1N3,ON,CAN,9055038828,4165585986,6476916655,6479616655,6476312030,,,,
80256,FALSE,-,-,Zaffron Restaurant,6200 Yonge St,Toronto,M2M 3X1,ON,CAN,4162237070,,,,,,,,
80257,FALSE,-,-,Ani Ristorante,1450 Clark Ave W,Vaughan,L4J 7J9,ON,CAN,9057616484,,,,,,,,
80258,FALSE,-,-,Hung Fatt Chinese Restaurant,2108 Montreal Rd.,Ottawa,k1J 6M8,ON,CAN,6137459894,6138896828,6133141384,,,,,,
80259,FALSE,-,-,Super Panda,705 Kingston Rd,Pickering,L1V 6K3,ON,CAN,9058377888,4168251555,9058371688,4168008684,9022526318,,,,
,TRUE,3320 McCarthy Rd,-,Asian Palace,3320 McCarthy Rd,Ottawa,K1V 0X3,ON,CAN,5072389288,6268238009,,,,,,,
80260,FALSE,-,-,Z's Restaurant,7471 Industrial Bend,Red Deer,T4P 3Z5,AB,CAN,4033968672,4033461443,,,,,,,
,TRUE,7 Progress Ave,-,"Hot Wok, Hakka Chinese Food",7 Progress Ave,Toronto,M1P 5A3,ON,CAN,4162935342,6479221138,6479241138,9054721138,6472178204,,,,
80261,FALSE,-,-,Asa Japanese Restaurant,2178 West 41st Avenue,Vancouver,V6M 1Z1,BC,CAN,6042670077,7788755224,6043271641,7789800825,,,,,
80262,FALSE,-,-,Big Butcher Barbeque,843 Kipling Ave,Toronto,M8Z 5G9,ON,CAN,4162365959,4162362332,,,,,,,
80263,FALSE,-,-,Mega Sushi,3131 Chatham St.,Richmond,V7E 2Y4,BC,CAN,6044470773,7788755224,7789800825,,,,,,
80264,FALSE,-,-,Fraserview Meat & Tandoori House,7747 6th St,Burnaby,V3N 3M7,BC,CAN,6045229006,6048080191,,,,,,,
80265,FALSE,-,-,Golden Pita Lebanese Restaurant,9630 Cameron St,Burnaby,V3J 1M2,BC,CAN,6044445855,7783871121,,,,,,,
,TRUE,15 Northtown Way,-,Cottage (Lamzy),15 Northtown Way,Toronto,M2N 7A2,ON,CAN,6477005430,4168009094,,,,,,,
80266,FALSE,-,-,Kung Fu Chop Chop,4002 Sheppard Avenue East,Toronto,M1S 4R5,ON,CAN,6478001111,,,,,,,,
80267,FALSE,-,-,Fortune Dragon,6085 Creditview Rd.,Mississauga,L5V 2A8,ON,CAN,9058160988,6475011779,4168301688,,,,,,
80268,FALSE,-,-,Sushi 2 You,F2 2640 52 Street NE,Calgary,T1Y 3R6,AB,CAN,4034574349,4037148578,,,,,,,
80269,FALSE,-,-,786 Shawarma Donair,10b-234 Primrose Dr,Saskatoon,S7K 6Y6,SK,CAN,3069333980,,,,,,,,
80270,FALSE,-,-,Sherwood Market & Deli,111 Sherwood Dr,Ottawa,K1Y 3V1,ON,CAN,6137296011,6137369898,6132622267,,,,,,
80271,FALSE,-,-,Yum Yum Jamaican Restaurant,2450 Dufferin St,Toronto,M6E 3T1,ON,CAN,4169131742,6478303937,,,,,,,
80272,FALSE,-,-,Cruda Cafe,93 Front Street East,Toronto,M5E 1C3,ON,CAN,6473466502,,,,,,,,
80273,FALSE,-,-,Lucky Lotto Chester Fried Chicken (Walia's),228 Isabel St,Winnipeg,R3A 1G9,MB,CAN,2046911700,2047743399,,,,,,,
80274,FALSE,-,-,Tokyo Sushi,8366 Woodbine Ave,Markham,L3R 2N8,ON,CAN,6468820152,3472428734,,,,,,,
,TRUE,134 Dundas St E,-,Good View,134 Dundas St E,Toronto,M5B 100,ON,CAN,4168610888,4168372118,4165366082,,,,,,
80275,FALSE,-,-,Shanghai Restaurant,304 Springbank Dr.,London,N6J 1G5,ON,CAN,4082451342,,,,,,,,
,TRUE,978 University Ave W,-,Shin Shin,978 University Ave W,Windsor,N9A 5S2,ON,CAN,5192521449,5195676568,5195746188,,,,,,
80276,FALSE,-,-,Top Sushi,229 N. Christina Street,Sarnia,N7T 4C1,ON,CAN,5193367620,4167216788,,,,,,,
80277,FALSE,-,-,I Love Sushi,494 Queen St W,Toronto,M5V 2B3,ON,CAN,3067898996,3065019708,3065526352,,,,,,
80278,FALSE,-,-,Volcano Sushi (Commercial Dr),1861 Commercial Dr,Vancouver,V5N 4A6,BC,CAN,6046768809,7788633860,4158905051,3474204720,7783085034,,,,
80279,FALSE,-,-,Golden Wok,120 Eringate Dr,Toronto,M9C 2N7,ON,CAN,2057987288,2054208396,2054517974,2052437578,9172913620,,,,
,TRUE,1410 W Broadway,-,Broadway Chinese Restaurant,1410 W Broadway,Vancouver,V6H 1H6,BC,CAN,6047310488,6047250528,,,,,,,
80280,FALSE,-,-,Bangkok Paradise,494 Queen St. W,Toronto,M5V 2B3,ON,CAN,4165043210,4163648833,4168990292,,,,,,
80281,FALSE,-,-,Kings Buffet,1389 Dundas Street,London,N5W 3B7,ON,CAN,5194518885,,,,,,,,
80282,FALSE,-,-,John's Noodle Village,823 Bay St,Victoria,V8T 1R3,BC,CAN,2509789328,2505805821,2505882881,,,,,,
80283,FALSE,-,-,Les Grillades,111 Colonnade Rd.,Ottawa,K2E 7M3,ON,CAN,6137923224,6138523912,,,,,,,
,TRUE,1161 Northmount Dr NW,-,Flamingo Palace Express,1161 Northmount Dr NW,Calgary,T2L 1N8,AB,CAN,4032508893,4036078688,,,,,,,
80284,FALSE,-,-,Sushi Station,450 Memorial Ave,Thunder Bay,P7B 3Y6,ON,CAN,7858563330,9132937482,7858563320,9132937482,,,,,
80285,FALSE,-,-,Mr Sub,4662 MacLeod Trl SW,Calgary,T2G 500000000,AB,CAN,4032877827,4037106459,,,,,,,
,TRUE,462 Birchmount Rd,-,Zam Zam Tikka & Kabab,462 Birchmount Rd,Scarborough,M1K 1N8,ON,CAN,4169016102,4167320448,6475561279,,,,,,
80286,FALSE,-,-,Black Cat Lounge & Grill,150-635 6th Avenue S.W.,Calgary,T2P 0T5,AB,CAN,4032337654,5872271274,,,,,,,
80287,FALSE,-,-,Mazaj Mediterranean Cuisine,230 7 Ave SW,Calgary,T2P 0W6,AB,CAN,4034401440,8472420738,,,,,,,
,FALSE,-,-,Asian Cuisine,800 Central Ave,Saskatoon,S7N 2G6,SK,CAN,2018189288,2017790500,,,,,,,
,TRUE,3315 26 Ave SW,-,Jolly Good Chinese Food,3315 26 Ave SW,Calgary,T3E 0N2,AB,CAN,4032424400,,,,,,,,
,TRUE,10 Fairview Rd,-,Noble Cuisine,10 Fairview Rd,Barrie,L4N 4P3,ON,CAN,7057359888,,,,,,,,
80288,FALSE,-,-,New York Restaurant,5027 Centre Street,Niagara Falls,L2G 3N6,ON,CAN,9053545213,2892711131,9053577157,,,,,,
,TRUE,1530 Albion Rd,-,Nori Sushi (Etobicoke),1530 Albion Rd,Etobicoke,M9V 1B3,ON,CAN,4167421530,6479965956,,,,,,,
80289,FALSE,-,-,Natural Sushi Restaurant,714 Yonge St.,Toronto,M4Y 2B3,ON,CAN,4169218988,,,,,,,,
,TRUE,217 Parliament St,-,Panda Chef,217 Parliament St,Toronto,M5A 2Z4,ON,CAN,9724423545,2148507329,9724423787,2148501928,4699010598,,,,
,TRUE,4055 Carling Ave,-,Hockey Sushi,4055 Carling Ave,Kanata,K2K 2A4,ON,CAN,6132701122,4168169830,6132701153,,,,,,
80290,FALSE,-,-,Green Leaf Bubble Tea,1539 Stittsville Main St Unit 107,Stittsville,K2S 2Z9,ON,CAN,3435880859,,,,,,,,
,TRUE,10112 101 Ave,-,Golden Star Restaurant,10112 101 Ave,Grande Prairie,T8V 0Y2,AB,CAN,8314224132,8318096533,,,,,,,
80291,FALSE,-,-,Lazy Monkey,11-3616 52 Ave NW,Calgary,T2L 1V9,AB,CAN,8254495168,,,,,,,,
,TRUE,315 E Broadway,-,Hime Sushi,315 E Broadway,Vancouver,V5T 1W5,BC,CAN,6047081616,,,,,,,,
,TRUE,840 Corydon Ave,-,Peking Restaurant,840 Corydon Ave,Winnipeg,R3N 0J2,MB,CAN,7148933020,7144677298,,,,,,,
80292,FALSE,-,-,House of Kwan,500 Notre Dame Dr #440,Kamloops,V2C 6T6,BC,CAN,2364252000,,,,,,,,
80293,FALSE,-,-,Guang Zhou Restaurant,108 Main St N,Preeceville,S0A 3B0,SK,CAN,13065473326,,,,,,,,
80294,FALSE,-,-,Creekside Chinese Restaurant Creekside Chinese,91 East Lake Crescent NE Unit2,Airdrie,T4A 2H6,AB,CAN,5877752828,5877752829,4039930982,,,,,,
80295,FALSE,-,-,GREEN LEAF,591 March Rd #6,Kanata,K2K 2M5,ON,CAN,16132169066,6132169066,,,,,,,
,TRUE,6 Crescent Ave W,-,Tak Lee Café,6 Crescent Ave W,Souris,R0K 2C0,MB,CAN,2044832742,,,,,,,,
80296,FALSE,-,-,Happy Garden Restaurant,436 Dewdney Ave,Regina,S4N 0,SK,CAN,5087472801,6176695498,5087472802,,,,,,
80297,FALSE,-,-,Harbin Chinese Restaurant 哈尔滨老道外砂锅居,591 March Rd #5,Kanata,K2K 2M5,ON,CAN,6136931525,,,,,,,,
80298,FALSE,-,-,Gozen Kitchen,17 Main St N,Gilbert Plains,R0L 0X0,MB,CAN,2045484368,2045484368,,,,,,,
80299,FALSE,-,-,Red Rice Buffet,125 Peter St,Port Hope,L1A 1C5,ON,CAN,9058851138,9058851138,,,,,,,
80300,FALSE,-,-,Asian Pear Buffet,2050 Harvey Ave,Kelowna,V1Y 8P8,BC,CAN,2508680038,,,,,,,,
,TRUE,29 St Joseph St,-,Hot Pot Kitchen(鱻辣燙),29 St Joseph St,Toronto,M4Y 1J8,ON,CAN,14169649999,,,,,,,,
80301,FALSE,-,-,Gordon Food Service,1700 Cliveden Ave,Delta,V3M 6T2,BC,CAN,,,,,,,,,
,TRUE,6919 172 St NW,-,Rice To Go,6919 172 St NW,Edmonton,T5T 5Y1,AB,CAN,8303930292,7025253345,7025236260,,,,,,
80302,FALSE,-,-,Delicious legend (North Battleford) 美味源,1102 102 St,North Battleford,S9A 100000000,SK,CAN,13064456688,,,,,,,,
,TRUE,74 Old Placentia Rd,-,Full House Restaurant,74 Old Placentia Rd,Mount Pearl,A1N 5H5,NL,CAN,17093648399,,,,,,,,
80303,FALSE,-,-,Dim Sum Queen,3241 Yonge St,Toronto,M4N 2L5,ON,CAN,14163228818,,,,,,,,
,TRUE,6355 152 St,-,Golden Panda Restaurant,6355 152 St,Surrey,V3S 3K8,BC,CAN,16045723889,6045723889,,,,,,,
,TRUE,478 Dundas St W,-,Harmony Restaurant(蜀留香),478 Dundas St W,Toronto,M5T 1G9,ON,CAN,6475331108,4165917733,6473584888,4168009679,,,,,
,TRUE,5027 Centre St,-,New York Restaurant,5027 Centre St,Niagara Falls,L2G 3L6,ON,CAN,9053545213,2892711131,9053577157,,,,,,
80304,FALSE,-,-,Dragon Palace,1292 101 St,North Battleford,S9A 0Z8,SK,CAN,9182252688,6466390865,6463226690,9293185558,,,,,
,TRUE,122 Elizabeth St,-,Japango,122 Elizabeth St,Toronto,M5G 1P5,ON,CAN,14165995557,,,,,,,,
80305,FALSE,-,-,HI TEA & HI CHICKEN (台湾奶茶),8025 104 St NW,Edmonton,T6E 4000,AB,CAN,17809441388,7809441388,,,,,,,
80306,FALSE,-,-,Chinese Wok,22 Westside Dr,Cochrane,T4C 1M1,AB,CAN,2813380038,8327109293,,,,,,,
80307,FALSE,-,-,Dumpling & More,442 Dundas St W,Toronto,M5T 1G7,ON,CAN,16473483168,6473483168,,,,,,,
80308,FALSE,-,-,Wok 'N Roll,25 Industrial Dr,Elmira,N3B 3K3,ON,CAN,2567181033,7183607558,,,,,,,
,TRUE,377 Burnhamthorpe Rd E,-,The Great Wok of China,377 Burnhamthorpe Rd E,Mississauga,L5A 3Y1,ON,CAN,19052767665,9052767665,9052767621,,,,,,
80309,FALSE,-,-,Sun Tin Day Cafe,5137 Victoria Dr,Vancouver,V5P 3V1,BC,CAN,16043366168,,,,,,,,
,TRUE,6340 Dewdney Ave,-,McCarthy Garden Chinese Food,6340 Dewdney Ave,Regina,S4T 1000,SK,CAN,13065436999,,,,,,,,
80310,FALSE,-,-,Silk Road Restaurant,1852 Dundas St E,Mississauga,L4X 1L9,ON,CAN,7035343838,5712763684,3042083270,,,,,,
,TRUE,1223 Main St W,-,South China Chinese Food,1223 Main St W,Hamilton,L8S 1C3,ON,CAN,9055288474,,,,,,,,
80311,FALSE,-,-,Full Yuan Seafood Restaurant,3833 Midland Ave #38,Scarborough,M1V 5L6,ON,CAN,14163353676,,,,,,,,
,TRUE,11107 103 Ave NW,-,Blue Willow Restaurant Ltd,11107 103 Ave NW,Edmonton,T5K 2P1,AB,CAN,17804280584,7804262121,,,,,,,
80312,FALSE,-,-,BULAGE Prague,2111 Centre St NW Unit 3,Calgary,T2E 2T2,AB,CAN,14032779933,4032779933,,,,,,,
80313,FALSE,-,-,川湘小厨 Hu‘s Kitchen,4394 Imperial St,Burnaby,V5J 1A9,BC,CAN,16044393029,,,,,,,,
,TRUE,4689 Kingsway,-,Colour See See,4689 Kingsway,Burnaby,V5H 2B3,BC,CAN,6045599895,,,,,,,,
,TRUE,4621 Hastings St,-,Paul's Restaurant,4621 Hastings St,Burnaby,V5C 2K6,BC,CAN,16042986905,,,,,,,,
,TRUE,13393 72 Ave,-,Main Choice Chinese restaurant,13393 72 Ave,Surrey,V3W 2N5,BC,CAN,16045918677,6045918677,,,,,,,
,TRUE,5555 Eglinton Ave W,-,The Wokker Restaurant,5555 Eglinton Ave W,Etobicoke,M9C 5M1,ON,CAN,19052383177,9052383177,,,,,,,
,TRUE,120 Service Rd,-,Amy's,120 Service Rd,Vulcan,T0L 2B0,AB,CAN,14034852222,,,,,,,,
80314,FALSE,-,-,Beijing Restaurant,2309 20 Av,Nanton,T0L 1R0,AB,CAN,4153338182,4158068962,4808894265,,,,,,
,TRUE,4500 Kingsway,-,Chao Shou Wang,4500 Kingsway,Burnaby,V5H 2B1,BC,CAN,17783715033,,,,,,,,
80315,FALSE,-,-,Qinthai chinese cuisine Qinthai Cuisine,325 Weston Rd,Toronto,M6N 4Z9,ON,CAN,4167669333,14162430630,4162430630,6477120901,4163589868,6476129384,4162431015,4168980302,
80316,FALSE,-,-,Asian One Restaurant,9600 Islington Ave Unit D1,Woodbridge,L4H 2T1,ON,CAN,19055528882,9055528882,,,,,,,
,TRUE,3250 Midland Ave,-,a! Xiang Noodle,3250 Midland Ave,Scarborough,M1V 0C4,ON,CAN,16478256288,,,,,,,,
,TRUE,4040 Creditview Rd,-,Chinese Dumpling House,4040 Creditview Rd,Mississauga,L5C 3Y8,ON,CAN,9052705988,,,,,,,,
80317,FALSE,-,-,Happy Kitchen,9907 103 St #101,Fort Saskatchewan,T8L 2C8,AB,CAN,9099499888,9172155371,9092475187,,,,,,
,TRUE,1280 Yonge St,-,Golden House Restaurant,1280 Yonge St,Toronto,M4T 1W5,ON,CAN,2156288298,9175820989,2156288362,,,,,,
,TRUE,4544 Hastings St,-,Joju Hotpot 九州簡餐,4544 Hastings St,Burnaby,V5C 2K4,BC,CAN,16042970371,,,,,,,,
80318,FALSE,-,-,HQ Chinese Skillet (川味坊),204-403 North Rd,Coquitlam,V3K 3V9,BC,CAN,17783558181,,,,,,,,
80319,FALSE,-,-,Empire Garden Chinese Restaurant,20378 88 Ave,Langley Twp,V4W 3N7,BC,CAN,16048821111,,,,,,,,
,TRUE,4205 Keele St,-,Tin Tin Congee Chinese Restaurant,4205 Keele St,North York,M3J 3T8,ON,CAN,14166618883,4166618883,,,,,,,
80320,FALSE,-,-,M Palace Seafood & Dim Sum Restaurant Ltd.,10400 Macleod Trail SE,Calgary,T2J 0P8,AB,CAN,15873333088,,,,,,,,
80321,FALSE,-,-,Mighty Mango Restaurant Ltd,15425 Bannister Rd SE #18,Calgary,T2X 3000000000,AB,CAN,14032542888,,,,,,,,
80322,FALSE,-,-,田师傅湘菜 Tian Shi Fu Restaurant,8251 Alexandra Rd,Richmond,V6X 1C3,BC,CAN,7782231245,6778445632,,,,,,,
80323,FALSE,-,-,Twenty Thirty Chinese,602D 16 Ave NW,Calgary,T2M 0J7,AB,CAN,14034570880,,,,,,,,
80324,FALSE,-,-,China House,8 Conway St #160,Red Deer,T4P 0M9,AB,CAN,7186655878,9176909265,,,,,,,
,TRUE,18212 89 Ave NW,-,Leng's Chinese Food,18212 89 Ave NW,Edmonton,T5T 6S1,AB,CAN,,,,,,,,,
,TRUE,3968 Lakeshore Rd,-,Chan fortune restaurant - old,3968 Lakeshore Rd,Kelowna,V1W 1V5,BC,CAN,17784773988,7784773988,,,,,,,
,TRUE,1513 Broadway Ave E,-,Sizzling House Restaurant,1513 Broadway Ave E,Redcliff,T0J 2P0,AB,CAN,14035283388,,,,,,,,
,TRUE,1410 W Broadway,-,Broadway Chinese,1410 W Broadway,Vancouver,V6H 1H4,BC,CAN,16047310488,,,,,,,,
,TRUE,8260 Westminster Hwy,-,wuhan spicy duck 武汉鸭脖,8260 Westminster Hwy,Richmond,V6X 3Y2,BC,CAN,16044478686,,,,,,,,
80325,FALSE,-,-,Great Red Peppers,60 James St N,Hamilton,L8R 2K1,ON,CAN,19055234888,9055234888,,,,,,,
,TRUE,3602 Taylor St E,-,Summer Palace,3602 Taylor St E,Saskatoon,S7H 5H9,SK,CAN,4072818222,4076176722,4076209779,8189153455,,,,,
,TRUE,8329 Oak St,-,Chuan Yue,8329 Oak St,Vancouver,V6P 4A9,BC,CAN,16043366238,6043366238,,,,,,,
,TRUE,575 28 St SE,-,New Dynasty Restaurant & Bar(AB T2A 6X1),575 28 St SE,Calgary,T2A 6X1,AB,CAN,14032480061,,,,,,,,
80326,FALSE,-,-,付小姐在成都 Miss Fu In Cheng Du,2130-8391 Alexandra Rd,Richmond,V6X 1C3,BC,CAN,16043705667,,,,,,,,
80327,FALSE,-,-,杭帮菜,3887 Don Mills Rd,Toronto,M2H 2S7,ON,CAN,6473516660,,,,,,,,
80328,FALSE,-,-,Phoenix Kitchen + Lounge 鳳凰城 酒家,8060 Silver Springs Blvd NW #140,Calgary,T3B 5K1,AB,CAN,14032889292,,,,,,,,
80329,FALSE,-,-,Phoenix Gate Chinese Cuisine 鳳凰軒海鮮酒家,1518 Centre A St NE,Calgary,T2E 2R9,AB,CAN,14035208098,,,,,,,,
80330,FALSE,-,-,Grand Crystal Seafood Restaurant,4500 Kingsway #2216,Burnaby,V5H 4V2,BC,CAN,16044560388,,,,,,,,
80331,FALSE,-,-,NoodleMan,6336 Vedder Rd,Chilliwack,V2R 1C8,BC,CAN,16048584999,6048584999,,,,,,,
,TRUE,34 Athabasca Ave,-,Taste Of China,34 Athabasca Ave,Devon,T9G 1G2,AB,CAN,7182563838,3479259610,7182563085,3475069556,9296104785,,,,
,TRUE,2557 Warden Ave,-,Dumplings & Szechuan Cuisine,2557 Warden Ave,Scarborough,M1W 2H7,ON,CAN,14164937375,,,,,,,,
,TRUE,10638 100 St NW,-,Emperor's Palace Chinese Cuisine,10638 100 St NW,Edmonton,T5H 4L4,AB,CAN,17807572288,7807572288,,,,,,,
,TRUE,10090 152 St,-,Jade Valley Chinese Restaurant,10090 152 St,Surrey,V3R 8X8,BC,CAN,16045882345,,,,,,,,
80332,FALSE,-,-,Futian Dumpling Restaurant,3490 Kingsway #7,Vancouver,V5R 5L7,BC,CAN,16044288638,,,,,,,,
80333,FALSE,-,-,Joyce Jiaozi Restaurant,5171 Joyce St,Vancouver,V5R 4G8,BC,CAN,16044365678,,,,,,,,
,TRUE,1100 Portage Ave,-,Lucky Koi Express Chinese Restaurant,1100 Portage Ave,Winnipeg,R3G 0S4,MB,CAN,12049439933,,,,,,,,
80334,FALSE,-,-,Yami Garden Chinese Restaurant 來一份,8-20 Island Shore Blvd,Winnipeg,R3X 1N6,MB,CAN,12046911189,,,,,,,,
80335,FALSE,-,-,Chipan Japanese Sushi & Chinese Cuisine,103 - 535 Yates St,Victoria,V8W 2Z6,BC,CAN,17784337229,,,,,,,,
80336,FALSE,-,-,New World Restaurant,2840 2 Ave W,Prince Albert,S6V 5Z4,SK,CAN,6188425510,6185998924,6189192778,6189191367,6183151972,,,,
80337,FALSE,-,-,一品川菜 Szechuan Delicious Restaurant,125-8291 Alexandra Rd,Richmond,V6X 1C3加拿大,BC,CAN,6043701479,,,,,,,,
80338,FALSE,-,-,China Emerald Buffet,143 Hartzel Rd,St. Catharines,L2P 1N6,ON,CAN,19059388898,,,,,,,,
,TRUE,338 Spadina Ave,-,Taste of China Seafood Restaurant,338 Spadina Ave,Toronto,M5T 2G2,ON,CAN,14163488828,,,,,,,,
80339,FALSE,-,-,Park Street Garden,2407 Park St,Regina,S4N 2H1,SK,CAN,3063472828,,,,,,,,
,TRUE,3380 Midland Ave,-,Tang Home Style Lamb & Beef,3380 Midland Ave,Scarborough,M1V 5B5,ON,CAN,16474300188,,,,,,,,
,TRUE,8282 Centre St N,-,Shanghai Classic Restaurant,8282 Centre St N,Calgary,T3K 2X4,AB,CAN,14032951323,,,,,,,,
,TRUE,892 Central St E,-,Sushi97,892 Central St E,Prince George,V2M 3B8,BC,CAN,12505633997,,,,,,,,
,TRUE,8650 112 Ave NW,-,Empress Palace Restaurant,8650 112 Ave NW,Calgary,T3R ,AB,CAN,5872963098,,,,,,,,
,TRUE,968 Alder St,-,Best Wok,968 Alder St,Campbell River,V9W 2P9,BC,CAN,8457350663,8457356088,2015739578,6466597371,,,,,
,TRUE,8511 Alexandra Rd,-,Marine Bay Restaurant,8511 Alexandra Rd,Richmond,V6X 1C3,BC,CAN,16042853668,,,,,,,,
,TRUE,275 Wharncliffe Rd N,-,Potato Noodles,275 Wharncliffe Rd N,London,N6H ,ON,CAN,15196016988,5196016988,,,,,,,
,TRUE,3564 Pembina Hwy,-,Riverview Garden Restaurant,3564 Pembina Hwy,Winnipeg,R3V 1A7,MB,CAN,12046155828,,,,,,,,
,TRUE,3488 Kingsway,-,Kuan Zhai Road Restaurant,3488 Kingsway,Vancouver,V5R 5L6,BC,CAN,16044303488,6044303488,,,,,,,
,TRUE,2800 E 1st Ave,-,Fortune City Seafood Restaurant,2800 E 1st Ave,Vancouver,V5M 4P3,BC,CAN,16042550008,,,,,,,,
80340,FALSE,-,-,Guilin Noodles 桂林米粉,303 Centre St S #113,Calgary,T2G 2B9,AB,CAN,4037679090,,,,,,,,
,TRUE,12524 132 Ave NW,-,Tasty Village Restaurant,12524 132 Ave NW,Edmonton,T5L 3P9,AB,CAN,17804887772,,,,,,,,
,TRUE,1796 Nanaimo St,-,Cindys Palace,1796 Nanaimo St,Vancouver,V5M 1C5,BC,CAN,16042539717,,,,,,,,
,TRUE,1266 Bloor St W,-,Kings Chef Chinese Resturant,1266 Bloor St W,Toronto,M6H 1N8,ON,CAN,14165328882,4167666366,,,,,,,
80341,FALSE,-,-,Apple Inn Chinese Restaurant,2409 Edmonton Trail,Calgary,T2E 3M7,AB,CAN,14032763353,,,,,,,,
80342,FALSE,-,-,Silver Palace Restaurant Inc,305 9 St E,Meadow Lake,S9X 1H1,SK,CAN,13062365155,3062365155,,,,,,,
,TRUE,212 Bank St,-,Asian Kitchen,212 Bank St,Ottawa,K2P 1X1,ON,CAN,4433942650,3015295786,4433942651,,,,,,
,TRUE,4 Greystone Walk Dr,-,Royal Congee Chinese Cuisine,4 Greystone Walk Dr,Scarborough,M1K 5J2,ON,CAN,14162618818,,,,,,,,
,TRUE,5640 Kingsway,-,On On Wonton House,5640 Kingsway,Burnaby,V5H 2G5,BC,CAN,16044374000,,,,,,,,
,TRUE,7666 Lundy's Ln,-,Magnolia Chinese Cuisine,7666 Lundy's Ln,Niagara Falls,L2H 1H1,ON,CAN,19053563388,,,,,,,,
,TRUE,1180 Columbia St W,-,Rice Bowl Rose Garden,1180 Columbia St W,Kamloops,V2C 6R6,BC,CAN,12503723868,2503723868,,,,,,,
80343,FALSE,-,-,New Sky Restaurant,353 Spadina Ave,Toronto,M5T 2G3,ON,CAN,14165968787,,,,,,,,
,TRUE,840 Corydon Ave,-,Peking Restaurant - old,840 Corydon Ave,Winnipeg,R3N 0J2,MB,CAN,12044532439,2044532458,,,,,,,
,TRUE,4456 Limebank Rd,-,Sing Hing Restaurant,4456 Limebank Rd,Ottawa,K1X 100000000,ON,CAN,7183871361,9172863202,7187180446,9179570235,6469619433,,,,
80344,FALSE,-,-,South Silk Road Chinese Restaurant,5552 Calgary Trail NW,Edmonton,T6H 4K1,AB,CAN,17807602222,,,,,,,,
,TRUE,823 14 St NW,-,South Silk Road Chinese Restaurant 云之南中餐馆,823 14 St NW,Calgary,T2N 2A4,AB,CAN,14032700707,,,,,,,,
,TRUE,2219 Centre St N,-,Calan Beef Noodle 卡兰拉面,2219 Centre St N,Calgary,T2E 2T4,AB,CAN,15873500050,,,,,,,,
,TRUE,401 Craig St,-,Gold Village Chinese Restaurant,401 Craig St,Dawson City,Y0B 1G0,YT,CAN,18679932368,,,,,,,,
,TRUE,5257 Victoria Dr,-,Sandy La Chinese Restaurant,5257 Victoria Dr,Vancouver,V5P 3V4,BC,CAN,16043271862,,,,,,,,
80345,FALSE,-,-,HingLung Chinese Restaurant,5-8580 Young Rd,Chilliwack,V2P 6Z8,BC,CAN,16044021238,6044021238,,,,,,,
80346,FALSE,-,-,Pink Pearl Chinese Seafood Restaurant,1132 E Hastings St,Vancouver,V6A 1S2,BC,CAN,6042534316,,,,,,,,
80347,FALSE,-,-,Panda Garden,5007 50 Ave,Bonnyville,T9N 2P8,AB,CAN,2077837755,9172572629,2077132324,2077132324,,,,,
80348,FALSE,-,-,Tradition Chinese Cuisine,573 Lawrence Ave,Kelowna,V1Y 6L8,BC,CAN,17784782788,,,,,,,,
80349,FALSE,-,-,Dragon Garden Restaurant,33 Harvest Hills Dr NE,Calgary,T3K 4R2,AB,CAN,14032263883,,,,,,,,
,TRUE,478 Dundas St W,-,Harmony Restaurant,478 Dundas St W,Toronto,M5T 1G9,ON,CAN,7735860777,7738271348,7735862929,,,,,,
,TRUE,2683 E Hastings St,-,James On Hastings Chinese Restaurant,2683 E Hastings St,Vancouver,V5K 3W8,BC,CAN,16042553188,,,,,,,,
80350,FALSE,-,-,Baiyulan Shanghai Cuisine,129-4940 Number 3 Rd,Richmond,V6Y 1N5,BC,CAN,16043048288,,,,,,,,
80351,FALSE,-,-,Li's Braised Chicken 小李黄焖,384 Yonge St unit 56,Toronto,M5B 1S8,ON,CAN,14169015880,,,,,,,,
80352,FALSE,-,-,Ginger & Soy Chinese Cuisine,1487 Marine Dr,West Vancouver,V7T 1B8,BC,CAN,7782798863,,,,,,,,
80353,FALSE,-,-,Chiu's Restaurant,400 Tache Ave,Winnipeg,R2H 2A6,MB,CAN,12042375777,,,,,,,,
,TRUE,697 Somerset St W,-,Ben Ben Restaurant,697 Somerset St W,Ottawa,K1R 6P5,ON,CAN,16132385022,,,,,,,,
,TRUE,176 Bedford Dr NE,-,Fai's Chinese Food,176 Bedford Dr NE,Calgary,T3K 2M9,AB,CAN,14032952606,,,,,,,,
,TRUE,29 St Joseph St,-,Wonton Kitchen,29 St Joseph St,Toronto,M4Y 1J8,ON,CAN,14169649999,,,,,,,,
80354,FALSE,-,-,Lotus Garden Restaurant,5039 Centre St,Niagara Falls,L2G 3N7,ON,CAN,6192831888,6192469898,,,,,,,
,TRUE,2306 Eglinton Ave E,-,Joe & Lin Restaurant,2306 Eglinton Ave E,Scarborough,M1K 2M2,ON,CAN,14167527933,,,,,,,,
,FALSE,-,-,Fancy Taste of China,1160 137 Ave SE,Calgary,T2J 6T6,AB,CAN,14032785566,4032785566,,,,,,,
,TRUE,1755 Pembina Hwy,-,Summer Palace Restaurant 憶江南,1755 Pembina Hwy,Winnipeg,R3T 2G6,MB,CAN,12042619241,,,,,,,,
,TRUE,3 High St SE,-,Golden National Family Restaurant,3 High St SE,Calgary,T2Z 0N2,AB,CAN,14032579777,,,,,,,,
80355,FALSE,-,-,Lucky House Restaurant,1500 7 Ave,Valemount,V0E 2Z0,BC,CAN,3148388900,3145286064,3143301787,3146625350,3144843765,,,,
,TRUE,9499 137 Ave NW,-,Good Buddy Restaurant (North),9499 137 Ave NW,Edmonton,T5E 5R8,AB,CAN,7804063838,7788912690,7809108833,7808625073,7803284524,7807093103,,,
80356,FALSE,-,-,New Happy Garden Restaurant,66 Wellington Rd 7,Elora,N0B 1S0,ON,CAN,2157471223,4403812144,,,,,,,
80357,FALSE,-,-,Mayflower Chinese Food Delivery Service,1200 McPhillips St,Winnipeg,R2X 2L6,MB,CAN,12045868163,,,,,,,,
,TRUE,7930 Bowness Rd NW,-,Kin's Chinese Food,7930 Bowness Rd NW,Calgary,T3B 0H3,AB,CAN,14032884451,4033855813,4032884451,,,,,,
,TRUE,557 Eglinton Ave W,-,Chinese food gallery,557 Eglinton Ave W,Toronto,M5N 1B5,ON,CAN,14163223230,,,,,,,,
,TRUE,123 2 Ave SE,-,Great Taste Chinese Restaurant,123 2 Ave SE,Calgary,T2G 0B2,AB,CAN,14032659880,,,,,,,,
80358,FALSE,-,-,Wally's Kitchen,9302 100 St #9302,Grande Prairie,T8V 2K9,AB,CAN,7805326969,,,,,,,,
80359,FALSE,-,-,Good Taste Chinese Szechuan Cuisine,10933 23 Ave NW #115,Edmonton,T6J 7B9,AB,CAN,17809886633,7809886633,,,,,,,
80360,FALSE,-,-,Sun Star Restaurant,631 BC-7,Coquitlam,V3K 3S5,BC,CAN,6049375944,6049318776,,,,,,,
80361,FALSE,-,-,Lucky Horse Chinese Restaurant,13737 72 Ave #125,Surrey,V3W 2P2,BC,CAN,16045912770,,,,,,,,
,TRUE,6400 Fraser St,-,Lian Hong Chinese Bakery,6400 Fraser St,Vancouver,V5W 3A4,BC,CAN,16043229367,,,,,,,,
80362,FALSE,-,-,Rhythm Chinese Restaurant (中文名逸站),530 Fifth St,Nanaimo,V9R 1P1,BC,CAN,12505912288,2505912288,,,,,,,
80363,FALSE,-,-,Asian Kitchen,291 Queen Mary St,Ottawa,K1K 1X1,ON,CAN,4433942650,3015295786,4433942651,,,,,,
80364,FALSE,-,-,Mandarin House - old,201 Fourth St,Nanaimo,V9R 1T2,BC,CAN,12507541470,2507541470,,,,,,,
80365,FALSE,-,-,YX Restaurant,106-755 McGill Rd,Kamloops,V2C 0B6,BC,CAN,12364253303,,,,,,,,
80366,FALSE,-,-,Ming Yan Seafood Restaurant,3238 King George Blvd,Surrey,V4P 1A5,BC,CAN,17782911886,7782911886,,,,,,,
80367,FALSE,-,-,X&L Kitchen 夹拣成厨 麻辣烫 家常菜,10346 University Ave,Edmonton,T6E 4P4,AB,CAN,15874091999,,,,,,,,
80368,FALSE,-,-,Panda Szechuan Chinese Restaurant,3085 152 St,Surrey,V4P 3K1,BC,CAN,16045601777,,,,,,,,
,TRUE,635 Corydon Ave,-,Sunshine Chinese Restaurant,635 Corydon Ave,Winnipeg,R3M 0W3,MB,CAN,12046152615,2049975180,,,,,,,
,TRUE,7180 Kerr St,-,Tasty Wok,7180 Kerr St,Vancouver,V5S 3000,BC,CAN,9416273886,9178550689,9178550698,,,,,,
80369,FALSE,-,-,Green Tea Restaurant,17304 105 Ave NW,Edmonton,T5S 1G4,AB,CAN,4808072891,9176893555,9176898688,9177947898,,,,,
80370,FALSE,-,-,Chu Kiang Chinese Restaurant,6491 Knight St,Vancouver,V5W 2J6,BC,CAN,16043278835,6043270652,,,,,,,
80371,FALSE,-,-,Mekong Restaurant,1030 Harvey Ave,Kelowna,V1Y 6H2,BC,CAN,12507638000,,,,,,,,
80372,FALSE,-,-,Star House Restaurant,854 Trans-Canada Hwy,Cache Creek,V0K 1H0,BC,CAN,12504579328,2504579328,,,,,,,
80373,FALSE,-,-,The Grand Yard (冬北小厨),219 St Paul St,St. Catharines,L2R 3M6,ON,CAN,19053488999,,,,,,,,
,TRUE,216 Glenridge Ave,-,Tang Chinese Cuisine - old,216 Glenridge Ave,St. Catharines,L2T 3J8,ON,CAN,19056885888,9056885888,,,,,,,
80374,FALSE,-,-,Rice Pea Chinese Restaurant,2280 Carling Ave,Ottawa,K2B 7G1,ON,CAN,16138288988,6138288988,,,,,,,
,TRUE,266 Elgin St,-,Oriental House Restaurant,266 Elgin St,Ottawa,K2P 1M2,ON,CAN,6179831388,,,,,,,,
80375,FALSE,-,-,Yip Hong's Dim Sum Restaurant,3140 Preston Ave S,Saskatoon,S7T 0A7,SK,CAN,13069563375,,,,,,,,
,TRUE,2825 32 Ave NE,-,Eastern Treasures Restaurant,2825 32 Ave NE,Calgary,T1Y 6J1,AB,CAN,14032508880,,,,,,,,
80376,FALSE,-,-,Delicious Legend,1036 Louise Ave,Saskatoon,S7H 2P6,SK,CAN,13069567333,,,,,,,,
,TRUE,1818 Byland Rd,-,Wok Inn Restaurants #3,1818 Byland Rd,West Kelowna,V1Z 1A9,BC,CAN,2507691893,,,,,,,,
80377,FALSE,-,-,Captain Wa,8260 Westminster Hwy Unit 2460,Richmond,V6X 3Y2,BC,CAN,16042148162,,,,,,,,
80378,FALSE,-,-,Wuhan Noodle 1950,3621 Hwy 7 unit 119,Markham,L3R 0G6,ON,CAN,19055138188,,,,,,,,
80379,FALSE,-,-,蜀道 shu tao,140-5960 Minoru Blvd,Richmond,V6X 3J3,BC,CAN,17787899919,7787899919,,,,,,,
80380,FALSE,-,-,Gary's House of Kwan,500 Notre Dame Dr #440,Kamloops,V2C 6T6,BC,CAN,2503141968,,,,,,,,
80381,FALSE,-,-,Canton Garden,45595 Yale Rd,Chilliwack,V2P 2N1,BC,CAN,9024067788,9024488528,9024231186,9024898388,9024888528,6478966773,9024438528,,
,TRUE,276 McPhillips St,-,Jade 276 Chinese Restaurant,276 McPhillips St,Winnipeg,R3E 2K8,MB,CAN,12044157838,2044157838,,,,,,,
,TRUE,129 Regent Ave W,-,Tasty Chinese Cuisine,129 Regent Ave W,Winnipeg,R2C 1R1,MB,CAN,12042223245,,,,,,,,
,TRUE,2297 St Joseph Blvd,-,My Favourite Chinese Food,2297 St Joseph Blvd,Orléans,K1C 10000000,ON,CAN,16138418888,6138418888,,,,,,,
80382,FALSE,-,-,麻辣居Chili Hut,11-222 16 Ave NE,Calgary,T2E 1J8,AB,CAN,14034559777,4034559777,,,,,,,
,TRUE,4909 Kingsway,-,ChongQing on Kingsway,4909 Kingsway,Burnaby,V5H 200000,BC,CAN,6045580101,,,,,,,,
80383,FALSE,-,-,Double Double Restaurant | 老油条,4600 Number 3 Rd Unit 128,Richmond,V6X 2C2,BC,CAN,16043703345,6043703345,,,,,,,
80384,FALSE,-,-,Wok N Roll Chinese,836 McLeod Ave #6,Winnipeg,R2G 3P3,MB,CAN,12046682334,,,,,,,,
80385,FALSE,-,-,Cheng Du Xiao Chi,4160 Number 3 Rd,Richmond,V6Y 0C2,BC,CAN,16042786609,,,,,,,,
80386,FALSE,-,-,Taipeicasserole Asian Restaurant,3435 Quance St #500,Regina,S4V 2Y4,SK,CAN,13067792221,,,,,,,,
80387,FALSE,-,-,Spice World Hotpot Restaurant,8580 Alexandra Rd #1060,Richmond,V6X 4B3,BC,CAN,16043703386,,,,,,,,
80388,FALSE,-,-,秦俑厨坊TerraCotta Boyz,12-4429 Kingsway,Burnaby,V5H 2A1,BC,CAN,6043369999,,,,,,,,
80389,FALSE,-,-,Szechuan Restaurant,320 16 Ave NW,Calgary,T2M 0H6,AB,CAN,3029990286,,,,,,,,
80390,FALSE,-,-,Kashgar Uyghur Cuisine,2100-1163 Pinetree Way,Coquitlam,V3T 4Z6,BC,CAN,16044741455,6044741455,,,,,,,
,TRUE,478 5th St,-,Golden Carriage Restaurant,478 5th St,Courtenay,V9N 1J7,BC,CAN,12503389333,2503389333,,,,,,,
,TRUE,1800 Main St,-,New Ocean King,1800 Main St,Winnipeg,R2V 2A3,MB,CAN,2043389333,,,,,,,,
,TRUE,3320 Kingsway,-,Peaceful Restaurant,3320 Kingsway,Vancouver,V5R 5L1,BC,CAN,16044281168,6044281168,,,,,,,
80391,FALSE,-,-,Golden Dragon,33550 S Fraser Way #2,Abbotsford,V2S 5G7,BC,CAN,5742438800,5743838573,5742100721,,,,,,
80392,FALSE,-,-,Annie's Kitchen Chinese Restaurant,10320 Whalley Blvd,Surrey,V3T 4H4,BC,CAN,16044985066,,,,,,,,
,TRUE,2609 E 49th Ave,-,Yu Kee BBQ Kitchen,2609 E 49th Ave,Vancouver,V5S 1J9,BC,CAN,6044388999,,,,,,,,
,TRUE,1400 Weber St E,-,China Taste,1400 Weber St E,Kitchener,N2A 3Z8,ON,CAN,6302629580,6302629581,6309239585,,,,,,
,TRUE,355 McDermot Ave,-,Double Greeting Chinese Snack House,355 McDermot Ave,Winnipeg,R3A 0A6,MB,CAN,12049561383,,,,,,,,
,TRUE,5630 4 Ave,-,Castle Restaurant,5630 4 Ave,Edson,T7E 1L6,AB,CAN,17807235551,7807235551,,,,,,,
,TRUE,2055 Quilchena Ave,-,Canada Cafe,2055 Quilchena Ave,Merritt,V1K 1B8,BC,CAN,12503785551,,,,,,,,
,TRUE,6408 Kingsway,-,Szechuan Cuisine,6408 Kingsway,Burnaby,V5E 10,BC,CAN,3149258711,3143595279,,,,,,,
80393,FALSE,-,-,Delight+ Chinese Cuisine&LUNCH Buffet,3126 Clarence Ave S,Saskatoon,S7T 0C9,SK,CAN,13069521686,,,,,,,,
,TRUE,2540 Shaughnessy St,-,Hiro Sushi,2540 Shaughnessy St,Port Coquitlam,V3C 3G2,BC,CAN,3012309635,2404012104,3012309655,,,,,,
80394,FALSE,-,-,Fung May Chinese Cuisine 楓味粥粉麵飯,4500 Kingsway #2301,Burnaby,V5H 2A9,BC,CAN,16044336520,,,,,,,,
,TRUE,4727 Kingsway,-,面香园 Tasty Lucky Noodle House,4727 Kingsway,Burnaby,V5H 2C3,BC,CAN,16043369977,,,,,,,,
,TRUE,5226 Kingsway,-,MeetRice Noodles,5226 Kingsway,Burnaby,V5H 2000000000,BC,CAN,16044233398,,,,,,,,
,TRUE,4989 Victoria Dr,-,Western Lake Chinese Seafood Restaurant,4989 Victoria Dr,Vancouver,V5P 3T7,BC,CAN,16043216862,,,,,,,,
80395,FALSE,-,-,Preference Noodle House,4854 Imperial St,Burnaby,V5J 1C4,BC,CAN,16045580995,,,,,,,,
80396,FALSE,-,-,Grand Chinese Yaletown Restaurant,1233 Hamilton St,Vancouver,V6B 6K3,BC,CAN,16046818288,,,,,,,,
,TRUE,705 W Broadway,-,Shanghai Lu Restaurant,705 W Broadway,Vancouver,V5Z 1G8,BC,CAN,16048739147,,,,,,,,
,TRUE,6591 Fraser St,-,Yu Xiang Yuan Restaurant,6591 Fraser St,Vancouver,V5X 3T4,BC,CAN,6046201856,,,,,,,,
80397,FALSE,-,-,New Woon Lee Inn Restaurant,3751 Delbrook Ave,North Vancouver,V7N 3Z4,BC,CAN,16049863388,,,,,,,,
,TRUE,2677 Pembina Hwy,-,Dim Sum Pembina Restaurant,2677 Pembina Hwy,Winnipeg,R3T 2H5,MB,CAN,2042697799,,,,,,,,
,TRUE,2126 W Broadway,-,Z&W Shanghai Kitchen 龍上海菜,2126 W Broadway,Vancouver,V6K 2C8,BC,CAN,16044232999,,,,,,,,
,TRUE,421 Dundas St W,-,Dim Sum King,421 Dundas St W,Toronto,M5T 2W4,ON,CAN,6507558128,4157068887,,,,,,,
,TRUE,79 Huron St,-,Yummy Yummy Dumplings,79 Huron St,Toronto,M5T 2A8,ON,CAN,4163881692,16478598998,6478598998,6479677744,,,,,
,TRUE,2059 111 St NW,-,Good Buddy Chinese Restaurant,2059 111 St NW,Edmonton,T6J 4V9,AB,CAN,17804326050,7804326050,7804459880,7804563206,5874051037,7804852383,7809062636,,
80398,FALSE,-,-,Wing Ho Chinese Restaurant,1455 Main St,North Vancouver,V7J 1C9,BC,CAN,16049882398,,,,,,,,
80399,FALSE,-,-,China Kitchen Cafe,424 Main St,Bienfait,S0C 0M0,SK,CAN,13064219198,,,,,,,,
80400,FALSE,-,-,Caltons Chinese Restaurant,5010 4 St NE #14,Calgary,T2K 5X8,AB,CAN,14032758181,,,,,,,,
,TRUE,5365 Gateway Blvd NW,-,Golden Rice Bowl Chinese Restaurant,5365 Gateway Blvd NW,Edmonton,T6H 4P8,AB,CAN,15873178027,,,,,,,,
,TRUE,501 Princess St,-,Dim Sum Kingston,501 Princess St,Kingston,K7L 1C3,ON,CAN,16137660194,,,,,,,,
80401,FALSE,-,-,VIP Chinese Restaurant,528 Princess St,Kingston,K7L 1C5,ON,CAN,16135302828,6135302828,6134843822,6135320891,9052331152,6138774887,6137701019,6137700082,6479962955
80402,FALSE,-,-,Creekside Chinese Restaurant - old,91 East Lake Crescent NE Unit2,Airdrie,T4A 2H6,AB,CAN,5877752828,5877752829,4039930982,,,,,,
80403,FALSE,-,-,GoGo Chicken Pot,10610 Bayview Ave Unit 2-3,Richmond Hill,L4C 3N8,ON,CAN,19057371628,,,,,,,,
80404,FALSE,-,-,Harbin Chinese Restaurant 哈尔滨老道外砂锅居 - old,591 March Rd #5,Kanata,K2K 2M5,ON,CAN,16136931525,6136931525,,,,,,,
,TRUE,1050 Henderson Hwy,-,Empress of China Restaurant,1050 Henderson Hwy,Winnipeg,R2K 2M5,MB,CAN,5024512500,5024155508,5023380736,7039561363,8182374606,,,,
,TRUE,205 Jennifer Heil Way,-,Peking Way Chinese Cuisine,205 Jennifer Heil Way,Spruce Grove,T7X 0T3,AB,CAN,7809628026,,,,,,,,
,TRUE,4112 Albert St,-,Chinese Lantern Restaurant Ltd,4112 Albert St,Regina,S4S 3R8,SK,CAN,13063524588,,,,,,,,
80405,FALSE,-,-,Happy Garden Restaurant - old,436 Dewdney Ave,Regina,S4N 0,SK,CAN,13065809300,,,,,,,,
,TRUE,13022 82 St NW,-,Smilie's Place,13022 82 St NW,Edmonton,T5E 2T5,AB,CAN,17804787878,7804787878,,,,,,,
80406,FALSE,-,-,Monkey King Express Chinese Kitchen,855 Shawnigan Lake-Mill Bay Rd,Mill Bay,V0R 2P2,BC,CAN,12509293333,2509293333,,,,,,,
80407,FALSE,-,-,Dundas Spring Garden,434 Dundas St W,Toronto,M5T 1B7,ON,CAN,16473526888,,,,,,,,
80408,FALSE,-,-,金泉酒楼Golden Fountain Restaurant,1250 Eglinton Ave W,Mississauga,L5V 1N3,ON,CAN,19058218688,9058218688,,,,,,,
,TRUE,1749 Dewdney Ave E,-,Wings Yoshi Take-Out Restaurant,1749 Dewdney Ave E,Regina,S4N 4X8,SK,CAN,13065252288,3065252288,3065813082,,,,,,
80409,FALSE,-,-,Good Buddy Restaurant Good Buddy - Sherwood Park,11 Athabascan Ave #128,Sherwood Park,T8A 6H2,AB,CAN,7804168566,17804168566,7809937271,7809387664,7809521222,7804643991,,,
,TRUE,1193 Granville St,-,Tsui Hang Village,1193 Granville St,Vancouver,V6Z 1M1,BC,CAN,16046836868,,,,,,,,
,TRUE,1702 Alexandra Ave,-,New Red Lantern Restaurant,1702 Alexandra Ave,Saskatoon,S7K 3C5,SK,CAN,13066657335,,,,,,,,
80410,FALSE,-,-,Panda 3 Restaurant,2640 52 St NE,Calgary,T1Y 3R6,AB,CAN,4032938331,,,,,,,,
,TRUE,978 University Ave W,-,Shin Shin Chinese Restaurant 欣欣中餐厅,978 University Ave W,Windsor,N9A 5S2,ON,CAN,15192521449,,,,,,,,
80411,FALSE,-,-,TCJ Restaurant,64 Queen St E,Toronto,M5B 1Y4,ON,CAN,4163689988,6473825888,6479280689,,,,,,
80412,FALSE,-,-,Ancom Chinese Restaurant,834 Queensway,Etobicoke,M8Z 1N5,ON,CAN,4162512227,4162512228,6479643885,,,,,,
80413,FALSE,-,-,Genki Sushi,13504 Tecumseh Rd E,Windsor,N8N 3N7,ON,CAN,5199798988,,,,,,,,
,TRUE,1801 Dundas St E,-,Sushi Today,1801 Dundas St E,Whitby,L1N 7C5,ON,CAN,6177380888,8573139584,6174075237,,,,,,
80414,FALSE,-,-,Gold Penny Restaurant,2060 E Hastings St,Vancouver,V5L 4L5,BC,CAN,6042532442,,,,,,,,
,TRUE,2710 Dundas St W,-,Westown Chinese Restaurant,2710 Dundas St W,Toronto,M6P 1Y2,ON,CAN,14167666366,6477100930,6479686765,,,,,,
80415,FALSE,-,-,China Garden Restaurant 食德喜 China Garden,31 University Ave,Waterloo,N2J 2A2,ON,CAN,5198880088,4163187633,4163990633,5194983632,,,,,
80416,FALSE,-,-,GP Ranch Restaurant,13920 99 St,Grande Prairie,T8V 7W3,AB,CAN,7805328878,,,,,,,,
80417,FALSE,-,-,Three Fortunes Chinese,6060 Memorial Dr,Calgary,T2A 3W1,AB,CAN,4032734616,4433331926,4037301548,4037146303,4039666129,,,,
80418,FALSE,-,-,Mandarin House Restaurant,331 Ouellette Ave,Windsor,N9A 4J1,ON,CAN,3016047234,,,,,,,,
80419,FALSE,-,-,Chipan,535 Yates St,Victoria,V8W 2Z6,BC,CAN,7784337229,,,,,,,,
,TRUE,134 Dundas St E,-,Good View Restaurant,134 Dundas St E,Toronto,M5B 100,ON,CAN,14168610888,,,,,,,,
80420,FALSE,-,-,Omei Restaurant,420 Hwy 7,Richmond Hill,L4B 3K2,ON,CAN,9058818188,6475599067,,,,,,,
,TRUE,10969 98 St NW,-,Wokkery Restaurant,10969 98 St NW,Edmonton,T5H 2P7,AB,CAN,7804246546,6473605599,7809666328,7809533318,,,,,
80421,FALSE,-,-,Kokyo Japanese Restaurant,572 Rogers Rd,York,M6M 1B6,ON,CAN,4169626968,4166271501,4164580501,,,,,,
80422,FALSE,-,-,Wok House,388 St Albert Trail,St. Albert,T8N 5N6,AB,CAN,7804587755,7808607566,7808607569,7808637569,7807297566,6472429283,7808858098,7809375115,
,TRUE,3301 50 Ave,-,Red Star Chinese Restaurant,3301 50 Ave,Red Deer,T4N 3Y2,AB,CAN,4033095566,4033188881,,,,,,,
,TRUE,2365 Burrard St,-,Tim Kee Kitchen Cantonese & Szechuan Cuisine,2365 Burrard St,Vancouver,V6J 3J2,BC,CAN,16047388628,,,,,,,,